GSAT-10                 
1 38779U 12051B   26175.97105792 -.00000156  00000+0  00000+0 0  9995
2 38779   0.0621 259.8021 0008103 190.3061 255.6116  1.00272205 50172
INTELSAT 23 (IS-23)     
1 38867U 12057A   26176.15800062 -.00000275  00000+0  00000+0 0  9994
2 38867   0.0151   9.7735 0000095 155.3887 112.0078  1.00272002 50034
BEIDOU-2 G6             
1 38953U 12059A   26175.11571288 -.00000171  00000+0  00000+0 0  9997
2 38953   4.4398  73.4545 0009797 327.8672 356.6455  1.00271582 49972
LUCH-5B                 
1 38977U 12061A   26175.95142001 -.00000137  00000+0  00000+0 0  9997
2 38977  10.5008  49.8064 0002438 137.6896  51.8517  1.00272591 49689
YAMAL 300K              
1 38978U 12061B   26175.77697720  .00000080  00000+0  00000+0 0  9997
2 38978   0.0066 218.6510 0000789  56.9185 100.0107  1.00274288 49701
STAR ONE C3             
1 38991U 12062A   26176.15947412 -.00000240  00000+0  00000+0 0  9991
2 38991   0.0161  38.7782 0002531  63.8928 153.0478  1.00272492 49842
EUTELSAT 21B            
1 38992U 12062B   26176.17282067  .00000139  00000+0  00000+0 0  9998
2 38992   0.0650   1.6986 0002922  83.5127 271.9076  1.00271258 49905
ECHOSTAR 16             
1 39008U 12065A   26175.99558615 -.00000273  00000+0  00000+0 0  9994
2 39008   0.0167   9.6075 0002151  81.9245 118.5190  1.00270956 49728
ZHONGXING-12            
1 39017U 12067A   26175.97192459 -.00000197  00000+0  00000+0 0  9999
2 39017   0.0244  95.3092 0003100 350.0759 265.1107  1.00270772 49587
EUTELSAT 70B            
1 39020U 12069A   26175.96863124 -.00000035  00000+0  00000+0 0  9999
2 39020   0.0614 348.7560 0003590 100.0147 243.5757  1.00275097 49580
YAMAL 402               
1 39022U 12070A   26176.17940737  .00000094  00000+0  00000+0 0  9997
2 39022   1.2858  84.0736 0004045   8.4655 300.2703  1.00273469 49472
SKYNET 5D               
1 39034U 12075A   26176.17897404  .00000108  00000+0  00000+0 0  9993
2 39034   0.0684 342.8435 0003987 122.1544 285.5509  1.00275047 49232
MEXSAT 3                
1 39035U 12075B   26176.14577491 -.00000017  00000+0  00000+0 0  9992
2 39035   0.0176 321.6339 0001284 104.9417 144.3857  1.00275919  7131
TDRS 11                 
1 39070U 13004A   26176.13402234  .00000085  00000+0  00000+0 0  9999
2 39070   3.5322  31.3857 0005116  23.3331  92.3651  1.00272294 46778
AMAZONAS 3              
1 39078U 13006A   26175.94967648 -.00000273  00000+0  00000+0 0  9992
2 39078   0.0506 235.5416 0002494 255.6952  62.7288  1.00269660 44998
AZERSPACE 1             
1 39079U 13006B   26176.17758736  .00000143  00000+0  00000+0 0  9990
2 39079   0.0115 308.0083 0001847 174.4347 260.7995  1.00274221 48884
SBIRS GEO-2 (USA 241)   
1 39120U 13011A   26176.15860728 -.00000281  00000+0  00000+0 0  9990
2 39120   4.5061  52.5104 0001995  34.7653 193.3223  1.00271557 48612
EUTELSAT 117 WEST A     
1 39122U 13012A   26175.21859017 -.00000006  00000+0  00000+0 0  9993
2 39122   0.0353 293.4007 0003071 160.6613 140.2131  1.00273854 48508
ANIK G1                 
1 39127U 13014A   26176.14724824 -.00000065  00000+0  00000+0 0  9995
2 39127   0.0265 281.9113 0001892 168.1110 128.9624  1.00272496 48331
ZHONGXING-11            
1 39157U 13020A   26175.97400459 -.00000281  00000+0  00000+0 0  9990
2 39157   0.0210 308.5210 0002590 123.2057 289.9471  1.00272263 47975
EUTELSAT 7B             
1 39163U 13022A   26176.16987399  .00000057  00000+0  00000+0 0  9994
2 39163   0.0652   7.8785 0004388  33.6054 299.9684  1.00272312 48025
WGS F5 (USA 243)        
1 39168U 13024A   26175.99002846  .00000000  00000+0  00000+0 0  9994
2 39168   0.0237   3.4638 0000324  56.3385 157.2361  1.00269966 47256
SES-6                   
1 39172U 13026A   26176.16051396 -.00000252  00000+0  00000+0 0  9995
2 39172   0.0161   4.4481 0002825  93.6299 192.5158  1.00271378 47807
IRNSS-1A                
1 39199U 13034A   26169.89544831  .00000051  00000+0  00000+0 0  9992
2 39199  35.7241  63.8469 0017589 183.2529  37.3106  1.00275723 47380
MUOS-2                  
1 39206U 13036A   26175.91739681 -.00000007  00000+0  00000+0 0  9994
2 39206   5.0101  45.5383 0051533 177.2830 192.5201  1.00274488 47276
ALPHASAT                
1 39215U 13038A   26174.98129274  .00000138  00000+0  00000+0 0  9997
2 39215   2.9986   1.2759 0002064 101.5326 187.4837  1.00274507 44080
INSAT-3D                
1 39216U 13038B   26175.98033130 -.00000331  00000+0  00000+0 0  9990
2 39216   1.9466  82.4530 0001095 358.8565 314.2526  1.00272630 47157
WGS F6 (USA 244)        
1 39222U 13041A   26175.80226351  .00000098  00000+0  00000+0 0  9990
2 39222   0.0184  13.9027 0000458  61.7401 350.9186  1.00274105 46137
ES'HAIL 1               
1 39233U 13044A   26176.17351403  .00000153  00000+0  00000+0 0  9995
2 39233   0.0481   9.6918 0002183  79.9545 271.6008  1.00273085 46708
GSAT-7                  
1 39234U 13044B   26176.18313406 -.00000067  00000+0  00000+0 0  9993
2 39234   0.1033  92.1908 0002676 189.0577 131.9543  1.00271718 45335
AMOS-4                  
1 39237U 13045A   26174.96944196  .00000000  00000+0  00000+0 0  9993
2 39237   0.0280  60.1731 0002382  11.9715 253.9884  1.00273351 47027
AEHF-3 (USA 246)        
1 39256U 13050A   26175.23892655  .00000032  00000+0  00000+0 0  9998
2 39256   5.3103  67.1195 0087966 188.0182 339.0328  1.00274351 45721
