OBJECT_NAME,OBJECT_ID,EPOCH,MEAN_MOTION,ECCENTRICITY,INCLINATION,RA_OF_ASC_NODE,ARG_OF_PERICENTER,MEAN_ANOMALY,EPHEMERIS_TYPE,CLASSIFICATION_TYPE,NORAD_CAT_ID,ELEMENT_SET_NO,REV_AT_EPOCH,BSTAR,MEAN_MOTION_DOT,MEAN_MOTION_DDOT
GSAT-10,2012-051B,2026-06-24T23:18:19.404288,1.00272205,.0008103,0.0621,259.8021,190.3061,255.6116,0,U,38779,999,5017,0,-.156E-5,0
INTELSAT 23 (IS-23),2012-057A,2026-06-25T03:47:31.253568,1.00272002,.0000095,0.0151,9.7735,155.3887,112.0078,0,U,38867,999,5003,0,-.275E-5,0
BEIDOU-2 G6,2012-059A,2026-06-24T02:46:37.592832,1.00271582,.00097976,4.4398,73.4545,327.8672,356.6455,0,U,38953,999,4997,0,-.171E-5,0
LUCH-5B,2012-061A,2026-06-24T22:50:02.688864,1.00272591,.0002438,10.5008,49.8064,137.6896,51.8517,0,U,38977,999,4968,0,-.137E-5,0
YAMAL 300K,2012-061B,2026-06-24T18:38:50.830080,1.00274288,.0000789,0.0066,218.6510,56.9185,100.0107,0,U,38978,999,4970,0,.8E-6,0
STAR ONE C3,2012-062A,2026-06-25T03:49:38.563968,1.00272492,.0002531,0.0161,38.7782,63.8928,153.0478,0,U,38991,999,4984,0,-.24E-5,0
EUTELSAT 21B,2012-062B,2026-06-25T04:08:51.705888,1.00271258,.0002922,0.0650,1.6986,83.5127,271.9076,0,U,38992,999,4990,0,.139E-5,0
ECHOSTAR 16,2012-065A,2026-06-24T23:53:38.643360,1.00270956,.0002151,0.0167,9.6075,81.9245,118.5190,0,U,39008,999,4972,0,-.273E-5,0
ZHONGXING-12,2012-067A,2026-06-24T23:19:34.284576,1.00270772,.00031,0.0244,95.3092,350.0759,265.1107,0,U,39017,999,4958,0,-.197E-5,0
EUTELSAT 70B,2012-069A,2026-06-24T23:14:49.739136,1.00275097,.000359,0.0614,348.7560,100.0147,243.5757,0,U,39020,999,4958,0,-.35E-6,0
YAMAL 402,2012-070A,2026-06-25T04:18:20.796768,1.00273469,.0004045,1.2858,84.0736,8.4655,300.2703,0,U,39022,999,4947,0,.94E-6,0
SKYNET 5D,2012-075A,2026-06-25T04:17:43.357056,1.00275047,.0003987,0.0684,342.8435,122.1544,285.5509,0,U,39034,999,4923,0,.108E-5,0
MEXSAT 3,2012-075B,2026-06-25T03:29:54.952224,1.00275919,.0001284,0.0176,321.6339,104.9417,144.3857,0,U,39035,999,713,0,-.17E-6,0
TDRS 11,2013-004A,2026-06-25T03:12:59.530176,1.00272294,.0005116,3.5322,31.3857,23.3331,92.3651,0,U,39070,999,4677,0,.85E-6,0
AMAZONAS 3,2013-006A,2026-06-24T22:47:32.047872,1.00269660,.0002494,0.0506,235.5416,255.6952,62.7288,0,U,39078,999,4499,0,-.273E-5,0
AZERSPACE 1,2013-006B,2026-06-25T04:15:43.547904,1.00274221,.0001847,0.0115,308.0083,174.4347,260.7995,0,U,39079,999,4888,0,.143E-5,0
SBIRS GEO-2 (USA 241),2013-011A,2026-06-25T03:48:23.668992,1.00271557,.0001995,4.5061,52.5104,34.7653,193.3223,0,U,39120,999,4861,0,-.281E-5,0
EUTELSAT 117 WEST A,2013-012A,2026-06-24T05:14:46.190688,1.00273854,.00030712,0.0353,293.4007,160.6613,140.2131,0,U,39122,999,4850,0,-.6E-7,0
ANIK G1,2013-014A,2026-06-25T03:32:02.247936,1.00272496,.0001892,0.0265,281.9113,168.1110,128.9624,0,U,39127,999,4833,0,-.65E-6,0
ZHONGXING-11,2013-020A,2026-06-24T23:22:33.996576,1.00272263,.000259,0.0210,308.5210,123.2057,289.9471,0,U,39157,999,4797,0,-.281E-5,0
EUTELSAT 7B,2013-022A,2026-06-25T04:04:37.112736,1.00272312,.0004388,0.0652,7.8785,33.6054,299.9684,0,U,39163,999,4802,0,.57E-6,0
WGS F5 (USA 243),2013-024A,2026-06-24T23:45:38.458944,1.00269966,.0000324,0.0237,3.4638,56.3385,157.2361,0,U,39168,999,4725,0,0,0
SES-6,2013-026A,2026-06-25T03:51:08.406144,1.00271378,.0002825,0.0161,4.4481,93.6299,192.5158,0,U,39172,999,4780,0,-.252E-5,0
IRNSS-1A,2013-034A,2026-06-18T21:29:26.733984,1.00275723,.00175894,35.7241,63.8469,183.2529,37.3106,0,U,39199,999,4738,0,.51E-6,0
MUOS-2,2013-036A,2026-06-24T22:01:03.084384,1.00274488,.0051533,5.0101,45.5383,177.2830,192.5201,0,U,39206,999,4727,0,-.7E-7,0
ALPHASAT,2013-038A,2026-06-23T23:33:03.692736,1.00274507,.00020642,2.9986,1.2759,101.5326,187.4837,0,U,39215,999,4408,0,.138E-5,0
INSAT-3D,2013-038B,2026-06-24T23:31:40.624320,1.00272630,.0001095,1.9466,82.4530,358.8565,314.2526,0,U,39216,999,4715,0,-.331E-5,0
WGS F6 (USA 244),2013-041A,2026-06-24T19:15:15.567264,1.00274105,.0000458,0.0184,13.9027,61.7401,350.9186,0,U,39222,999,4613,0,.98E-6,0
ES'HAIL 1,2013-044A,2026-06-25T04:09:51.612192,1.00273085,.0002183,0.0481,9.6918,79.9545,271.6008,0,U,39233,999,4670,0,.153E-5,0
GSAT-7,2013-044B,2026-06-25T04:23:42.782784,1.00271718,.0002676,0.1033,92.1908,189.0577,131.9543,0,U,39234,999,4533,0,-.67E-6,0
AMOS-4,2013-045A,2026-06-23T23:15:59.785344,1.00273351,.00023825,0.0280,60.1731,11.9715,253.9884,0,U,39237,999,4702,0,0,0
AEHF-3 (USA 246),2013-050A,2026-06-24T05:44:03.253920,1.00274351,.0087966,5.3103,67.1195,188.0182,339.0328,0,U,39256,999,4572,0,.32E-6,0
